ATLAS CENTAUR 2         
1 00694U 63047A   26098.51954106  .00002815  00000+0  33332-3 0  9997
2 00694  30.3567  28.9216 0546856 343.1962  15.1157 14.12213095135844
THOR AGENA D R/B        
1 00733U 64002A   26098.59439351  .00000181  00000+0  81633-4 0  9993
2 00733  99.1206 113.5606 0033119 169.7259 190.4608 14.34036775242589
SL-3 R/B                
1 00877U 64053B   26098.66583543  .00000234  00000+0  69435-4 0  9994
2 00877  65.0764 243.3484 0080741 282.8103  76.3984 14.61390896271176
SL-8 R/B                
1 02802U 67045B   26098.60848498  .00000265  00000+0  81036-4 0  9990
2 02802  74.0098 292.2125 0065127 291.9853  67.4393 14.45646258 93349
SL-8 R/B                
1 03230U 68040B   26098.45578686  .00002975  00000+0  22007-3 0  9996
2 03230  74.0306 252.8570 0023267  64.1725 296.1860 15.03482748 94483
OAO 2                   
1 03597U 68110A   26098.37857958  .00000202  00000+0  59427-4 0  9991
2 03597  34.9924  99.4565 0004990  74.6910 285.4332 14.47325273 23408
ISIS 1                  
1 03669U 69009A   26098.19000610  .00000095  00000+0  56840-4 0  9990
2 03669  88.4484 152.0865 1707665  29.6489 339.1205 11.30421937351866
SERT 2                  
1 04327U 70009A   26098.45797605  .00000043  00000+0  11534-3 0  9993
2 04327  99.2795  39.9291 0005773  88.4702  23.0679 13.58733368783937
SL-3 R/B                
1 05118U 71028B   26098.56368347  .00039019  00000+0  41013-3 0  9993
2 05118  81.2379  15.0624 0015894 167.1785 192.9878 15.63979237993330
ASTEX 1                 
1 05560U 71089A   26098.41159245  .00000398  00000+0  10136-3 0  9990
2 05560  92.7075 161.3633 0014991 352.9250   7.1742 14.50801854866615
SL-8 R/B                
1 05730U 71119B   26098.56923370  .00006217  00000+0  32563-3 0  9991
2 05730  73.8841 119.8443 0545759  80.1405 286.0890 14.38415284659789
OAO 3 (COPERNICUS)      
1 06153U 72065A   26098.13819931  .00000297  00000+0  65211-4 0  9991
2 06153  35.0045 129.5297 0006248  37.5897   2.9698 14.60022387850503
ATLAS CENTAUR R/B       
1 06155U 72065B   26098.15149528  .00001196  00000+0  16552-3 0  9995
2 06155  35.0006 133.0824 0034153 258.4267 101.2599 14.77775796845626
SL-8 R/B                
1 08459U 75112B   26098.62205356  .00000206  00000+0  76166-4 0  9993
2 08459  74.0613 323.8535 0014819  45.1142 315.1212 14.38221715636170
