[
  {
    "OBJECT_NAME": "ATLAS CENTAUR 2",
    "OBJECT_ID": "1963-047A",
    "EPOCH": "2026-04-08T12:28:08.347584",
    "MEAN_MOTION": 14.12213095,
    "ECCENTRICITY": 0.05468566,
    "INCLINATION": 30.3567,
    "RA_OF_ASC_NODE": 28.9216,
    "ARG_OF_PERICENTER": 343.1962,
    "MEAN_ANOMALY": 15.1157,
    "EPHEMERIS_TYPE": 0,
    "CLASSIFICATION_TYPE": "U",
    "NORAD_CAT_ID": 694,
    "ELEMENT_SET_NO": 999,
    "REV_AT_EPOCH": 13584,
    "BSTAR": 0.00033331765,
    "MEAN_MOTION_DOT": 2.815e-5,
    "MEAN_MOTION_DDOT": 0
  },
  {
    "OBJECT_NAME": "THOR AGENA D R/B",
    "OBJECT_ID": "1964-002A",
    "EPOCH": "2026-04-08T14:15:55.599264",
    "MEAN_MOTION": 14.34036775,
    "ECCENTRICITY": 0.00331199,
    "INCLINATION": 99.1206,
    "RA_OF_ASC_NODE": 113.5606,
    "ARG_OF_PERICENTER": 169.7259,
    "MEAN_ANOMALY": 190.4608,
    "EPHEMERIS_TYPE": 0,
    "CLASSIFICATION_TYPE": "U",
    "NORAD_CAT_ID": 733,
    "ELEMENT_SET_NO": 999,
    "REV_AT_EPOCH": 24258,
    "BSTAR": 8.1632907e-5,
    "MEAN_MOTION_DOT": 1.81e-6,
    "MEAN_MOTION_DDOT": 0
  },
  {
    "OBJECT_NAME": "SL-3 R/B",
    "OBJECT_ID": "1964-053B",
    "EPOCH": "2026-04-08T15:58:48.181152",
    "MEAN_MOTION": 14.61390896,
    "ECCENTRICITY": 0.00807413,
    "INCLINATION": 65.0764,
    "RA_OF_ASC_NODE": 243.3484,
    "ARG_OF_PERICENTER": 282.8103,
    "MEAN_ANOMALY": 76.3984,
    "EPHEMERIS_TYPE": 0,
    "CLASSIFICATION_TYPE": "U",
    "NORAD_CAT_ID": 877,
    "ELEMENT_SET_NO": 999,
    "REV_AT_EPOCH": 27117,
    "BSTAR": 6.9435041e-5,
    "MEAN_MOTION_DOT": 2.34e-6,
    "MEAN_MOTION_DDOT": 0
  },
  {
    "OBJECT_NAME": "SL-8 R/B",
    "OBJECT_ID": "1967-045B",
    "EPOCH": "2026-04-08T14:36:13.102272",
    "MEAN_MOTION": 14.45646258,
    "ECCENTRICITY": 0.00651277,
    "INCLINATION": 74.0098,
    "RA_OF_ASC_NODE": 292.2125,
    "ARG_OF_PERICENTER": 291.9853,
    "MEAN_ANOMALY": 67.4393,
    "EPHEMERIS_TYPE": 0,
    "CLASSIFICATION_TYPE": "U",
    "NORAD_CAT_ID": 2802,
    "ELEMENT_SET_NO": 999,
    "REV_AT_EPOCH": 9334,
    "BSTAR": 8.1036076e-5,
    "MEAN_MOTION_DOT": 2.65e-6,
    "MEAN_MOTION_DDOT": 0
  },
  {
    "OBJECT_NAME": "SL-8 R/B",
    "OBJECT_ID": "1968-040B",
    "EPOCH": "2026-04-08T10:56:19.984704",
    "MEAN_MOTION": 15.03482748,
    "ECCENTRICITY": 0.00232678,
    "INCLINATION": 74.0306,
    "RA_OF_ASC_NODE": 252.857,
    "ARG_OF_PERICENTER": 64.1725,
    "MEAN_ANOMALY": 296.186,
    "EPHEMERIS_TYPE": 0,
    "CLASSIFICATION_TYPE": "U",
    "NORAD_CAT_ID": 3230,
    "ELEMENT_SET_NO": 999,
    "REV_AT_EPOCH": 9448,
    "BSTAR": 0.00022006571,
    "MEAN_MOTION_DOT": 2.975e-5,
    "MEAN_MOTION_DDOT": 0
  },
  {
    "OBJECT_NAME": "OAO 2",
    "OBJECT_ID": "1968-110A",
    "EPOCH": "2026-04-08T09:05:09.275712",
    "MEAN_MOTION": 14.47325273,
    "ECCENTRICITY": 0.00049905,
    "INCLINATION": 34.9924,
    "RA_OF_ASC_NODE": 99.4565,
    "ARG_OF_PERICENTER": 74.691,
    "MEAN_ANOMALY": 285.4332,
    "EPHEMERIS_TYPE": 0,
    "CLASSIFICATION_TYPE": "U",
    "NORAD_CAT_ID": 3597,
    "ELEMENT_SET_NO": 999,
    "REV_AT_EPOCH": 2340,
    "BSTAR": 5.942693e-5,
    "MEAN_MOTION_DOT": 2.02e-6,
    "MEAN_MOTION_DDOT": 0
  },
  {
    "OBJECT_NAME": "ISIS 1",
    "OBJECT_ID": "1969-009A",
    "EPOCH": "2026-04-08T04:33:36.527040",
    "MEAN_MOTION": 11.30421937,
    "ECCENTRICITY": 0.17076659,
    "INCLINATION": 88.4484,
    "RA_OF_ASC_NODE": 152.0865,
    "ARG_OF_PERICENTER": 29.6489,
    "MEAN_ANOMALY": 339.1205,
    "EPHEMERIS_TYPE": 0,
    "CLASSIFICATION_TYPE": "U",
    "NORAD_CAT_ID": 3669,
    "ELEMENT_SET_NO": 999,
    "REV_AT_EPOCH": 35186,
    "BSTAR": 5.6839711e-5,
    "MEAN_MOTION_DOT": 9.5e-7,
    "MEAN_MOTION_DDOT": 0
  },
  {
    "OBJECT_NAME": "SERT 2",
    "OBJECT_ID": "1970-009A",
    "EPOCH": "2026-04-08T10:59:29.130720",
    "MEAN_MOTION": 13.58733368,
    "ECCENTRICITY": 0.00057737,
    "INCLINATION": 99.2795,
    "RA_OF_ASC_NODE": 39.9291,
    "ARG_OF_PERICENTER": 88.4702,
    "MEAN_ANOMALY": 23.0679,
    "EPHEMERIS_TYPE": 0,
    "CLASSIFICATION_TYPE": "U",
    "NORAD_CAT_ID": 4327,
    "ELEMENT_SET_NO": 999,
    "REV_AT_EPOCH": 78393,
    "BSTAR": 0.00011534314,
    "MEAN_MOTION_DOT": 4.3e-7,
    "MEAN_MOTION_DDOT": 0
  },
  {
    "OBJECT_NAME": "SL-3 R/B",
    "OBJECT_ID": "1971-028B",
    "EPOCH": "2026-04-08T13:31:42.251808",
    "MEAN_MOTION": 15.63979237,
    "ECCENTRICITY": 0.00158943,
    "INCLINATION": 81.2379,
    "RA_OF_ASC_NODE": 15.0624,
    "ARG_OF_PERICENTER": 167.1785,
    "MEAN_ANOMALY": 192.9878,
    "EPHEMERIS_TYPE": 0,
    "CLASSIFICATION_TYPE": "U",
    "NORAD_CAT_ID": 5118,
    "ELEMENT_SET_NO": 999,
    "REV_AT_EPOCH": 99333,
    "BSTAR": 0.00041012516,
    "MEAN_MOTION_DOT": 0.00039019,
    "MEAN_MOTION_DDOT": 0
  },
  {
    "OBJECT_NAME": "ASTEX 1",
    "OBJECT_ID": "1971-089A",
    "EPOCH": "2026-04-08T09:52:41.587680",
    "MEAN_MOTION": 14.50801854,
    "ECCENTRICITY": 0.00149918,
    "INCLINATION": 92.7075,
    "RA_OF_ASC_NODE": 161.3633,
    "ARG_OF_PERICENTER": 352.925,
    "MEAN_ANOMALY": 7.1742,
    "EPHEMERIS_TYPE": 0,
    "CLASSIFICATION_TYPE": "U",
    "NORAD_CAT_ID": 5560,
    "ELEMENT_SET_NO": 999,
    "REV_AT_EPOCH": 86661,
    "BSTAR": 0.00010136492,
    "MEAN_MOTION_DOT": 3.98e-6,
    "MEAN_MOTION_DDOT": 0
  },
  {
    "OBJECT_NAME": "SL-8 R/B",
    "OBJECT_ID": "1971-119B",
    "EPOCH": "2026-04-08T13:39:41.791680",
    "MEAN_MOTION": 14.38415284,
    "ECCENTRICITY": 0.05457592,
    "INCLINATION": 73.8841,
    "RA_OF_ASC_NODE": 119.8443,
    "ARG_OF_PERICENTER": 80.1405,
    "MEAN_ANOMALY": 286.089,
    "EPHEMERIS_TYPE": 0,
    "CLASSIFICATION_TYPE": "U",
    "NORAD_CAT_ID": 5730,
    "ELEMENT_SET_NO": 999,
    "REV_AT_EPOCH": 65978,
    "BSTAR": 0.00032562579,
    "MEAN_MOTION_DOT": 6.217e-5,
    "MEAN_MOTION_DDOT": 0
  },
  {
    "OBJECT_NAME": "OAO 3 (COPERNICUS)",
    "OBJECT_ID": "1972-065A",
    "EPOCH": "2026-04-08T03:19:00.420384",
    "MEAN_MOTION": 14.60022387,
    "ECCENTRICITY": 0.00062489,
    "INCLINATION": 35.0045,
    "RA_OF_ASC_NODE": 129.5297,
    "ARG_OF_PERICENTER": 37.5897,
    "MEAN_ANOMALY": 2.9698,
    "EPHEMERIS_TYPE": 0,
    "CLASSIFICATION_TYPE": "U",
    "NORAD_CAT_ID": 6153,
    "ELEMENT_SET_NO": 999,
    "REV_AT_EPOCH": 85050,
    "BSTAR": 6.521076e-5,
    "MEAN_MOTION_DOT": 2.97e-6,
    "MEAN_MOTION_DDOT": 0
  },
  {
    "OBJECT_NAME": "ATLAS CENTAUR R/B",
    "OBJECT_ID": "1972-065B",
    "EPOCH": "2026-04-08T03:38:09.192192",
    "MEAN_MOTION": 14.77775796,
    "ECCENTRICITY": 0.00341531,
    "INCLINATION": 35.0006,
    "RA_OF_ASC_NODE": 133.0824,
    "ARG_OF_PERICENTER": 258.4267,
    "MEAN_ANOMALY": 101.2599,
    "EPHEMERIS_TYPE": 0,
    "CLASSIFICATION_TYPE": "U",
    "NORAD_CAT_ID": 6155,
    "ELEMENT_SET_NO": 999,
    "REV_AT_EPOCH": 84562,
    "BSTAR": 0.00016552221,
    "MEAN_MOTION_DOT": 1.196e-5,
    "MEAN_MOTION_DDOT": 0
  },
  {
    "OBJECT_NAME": "SL-8 R/B",
    "OBJECT_ID": "1975-112B",
    "EPOCH": "2026-04-08T14:55:45.427584",
    "MEAN_MOTION": 14.38221715,
    "ECCENTRICITY": 0.00148195,
    "INCLINATION": 74.0613,
    "RA_OF_ASC_NODE": 323.8535,
    "ARG_OF_PERICENTER": 45.1142,
    "MEAN_ANOMALY": 315.1212,
    "EPHEMERIS_TYPE": 0,
    "CLASSIFICATION_TYPE": "U",
    "NORAD_CAT_ID": 8459,
    "ELEMENT_SET_NO": 999,
    "REV_AT_EPOCH": 63617,
    "BSTAR": 7.6165881e-5,
    "MEAN_MOTION_DOT": 2.06e-6,
    "MEAN_MOTION_DDOT": 0
  }
]
